<?xml version="1.0" encoding="UTF-8"?>
<ndm xmlns:xsi="http://www.w3.org/2001/XMLSchema-instance" xsi:noNamespaceSchemaLocation="https://sanaregistry.org/r/ndmxml_unqualified/ndmxml-2.0.0-master-2.0.xsd">
<omm id="CCSDS_OMM_VERS" version="2.0">
<header><CREATION_DATE/><ORIGINATOR/></header><body><segment><metadata><OBJECT_NAME>STARLINK-4446</OBJECT_NAME><OBJECT_ID>2022-099AS</OBJECT_ID><CENTER_NAME>EARTH</CENTER_NAME><REF_FRAME>TEME</REF_FRAME><TIME_SYSTEM>UTC</TIME_SYSTEM><MEAN_ELEMENT_THEORY>SGP4</MEAN_ELEMENT_THEORY></metadata><data><meanElements><EPOCH>2022-08-29T16:00:00.999936</EPOCH><MEAN_MOTION>15.65714866</MEAN_MOTION><ECCENTRICITY>.000169</ECCENTRICITY><INCLINATION>97.6558</INCLINATION><RA_OF_ASC_NODE>0.4701</RA_OF_ASC_NODE><ARG_OF_PERICENTER>65.8567</ARG_OF_PERICENTER><MEAN_ANOMALY>24.5213</MEAN_ANOMALY></meanElements><tleParameters><EPHEMERIS_TYPE>0</EPHEMERIS_TYPE><CLASSIFICATION_TYPE>U</CLASSIFICATION_TYPE><NORAD_CAT_ID>53505</NORAD_CAT_ID><ELEMENT_SET_NO>999</ELEMENT_SET_NO><REV_AT_EPOCH>288</REV_AT_EPOCH><BSTAR>-.11822E-1</BSTAR><MEAN_MOTION_DOT>-.1067476E-1</MEAN_MOTION_DOT><MEAN_MOTION_DDOT>0</MEAN_MOTION_DDOT></tleParameters></data></segment></body></omm>
<omm id="CCSDS_OMM_VERS" version="2.0">
<header><CREATION_DATE/><ORIGINATOR/></header><body><segment><metadata><OBJECT_NAME>STARLINK-4437</OBJECT_NAME><OBJECT_ID>2022-099AT</OBJECT_ID><CENTER_NAME>EARTH</CENTER_NAME><REF_FRAME>TEME</REF_FRAME><TIME_SYSTEM>UTC</TIME_SYSTEM><MEAN_ELEMENT_THEORY>SGP4</MEAN_ELEMENT_THEORY></metadata><data><meanElements><EPOCH>2022-08-29T16:00:00.999936</EPOCH><MEAN_MOTION>15.65860772</MEAN_MOTION><ECCENTRICITY>.0001916</ECCENTRICITY><INCLINATION>97.6558</INCLINATION><RA_OF_ASC_NODE>0.4697</RA_OF_ASC_NODE><ARG_OF_PERICENTER>62.5901</ARG_OF_PERICENTER><MEAN_ANOMALY>26.4249</MEAN_ANOMALY></meanElements><tleParameters><EPHEMERIS_TYPE>0</EPHEMERIS_TYPE><CLASSIFICATION_TYPE>U</CLASSIFICATION_TYPE><NORAD_CAT_ID>53506</NORAD_CAT_ID><ELEMENT_SET_NO>999</ELEMENT_SET_NO><REV_AT_EPOCH>288</REV_AT_EPOCH><BSTAR>-.14269E-1</BSTAR><MEAN_MOTION_DOT>-.12919E-1</MEAN_MOTION_DOT><MEAN_MOTION_DDOT>0</MEAN_MOTION_DDOT></tleParameters></data></segment></body></omm>
<omm id="CCSDS_OMM_VERS" version="2.0">
<header><CREATION_DATE/><ORIGINATOR/></header><body><segment><metadata><OBJECT_NAME>STARLINK-4444</OBJECT_NAME><OBJECT_ID>2022-099AU</OBJECT_ID><CENTER_NAME>EARTH</CENTER_NAME><REF_FRAME>TEME</REF_FRAME><TIME_SYSTEM>UTC</TIME_SYSTEM><MEAN_ELEMENT_THEORY>SGP4</MEAN_ELEMENT_THEORY></metadata><data><meanElements><EPOCH>2022-08-29T16:00:00.999936</EPOCH><MEAN_MOTION>15.65836052</MEAN_MOTION><ECCENTRICITY>.0001797</ECCENTRICITY><INCLINATION>97.6557</INCLINATION><RA_OF_ASC_NODE>0.4700</RA_OF_ASC_NODE><ARG_OF_PERICENTER>60.3144</ARG_OF_PERICENTER><MEAN_ANOMALY>30.6445</MEAN_ANOMALY></meanElements><tleParameters><EPHEMERIS_TYPE>0</EPHEMERIS_TYPE><CLASSIFICATION_TYPE>U</CLASSIFICATION_TYPE><NORAD_CAT_ID>53507</NORAD_CAT_ID><ELEMENT_SET_NO>999</ELEMENT_SET_NO><REV_AT_EPOCH>288</REV_AT_EPOCH><BSTAR>-.13552E-1</BSTAR><MEAN_MOTION_DOT>-.1232325E-1</MEAN_MOTION_DOT><MEAN_MOTION_DDOT>0</MEAN_MOTION_DDOT></tleParameters></data></segment></body></omm>
<omm id="CCSDS_OMM_VERS" version="2.0">
<header><CREATION_DATE/><ORIGINATOR/></header><body><segment><metadata><OBJECT_NAME>STARLINK-4443</OBJECT_NAME><OBJECT_ID>2022-099AV</OBJECT_ID><CENTER_NAME>EARTH</CENTER_NAME><REF_FRAME>TEME</REF_FRAME><TIME_SYSTEM>UTC</TIME_SYSTEM><MEAN_ELEMENT_THEORY>SGP4</MEAN_ELEMENT_THEORY></metadata><data><meanElements><EPOCH>2022-08-29T16:00:00.999936</EPOCH><MEAN_MOTION>15.65819136</MEAN_MOTION><ECCENTRICITY>.0001844</ECCENTRICITY><INCLINATION>97.6559</INCLINATION><RA_OF_ASC_NODE>0.4698</RA_OF_ASC_NODE><ARG_OF_PERICENTER>55.4971</ARG_OF_PERICENTER><MEAN_ANOMALY>34.1831</MEAN_ANOMALY></meanElements><tleParameters><EPHEMERIS_TYPE>0</EPHEMERIS_TYPE><CLASSIFICATION_TYPE>U</CLASSIFICATION_TYPE><NORAD_CAT_ID>53508</NORAD_CAT_ID><ELEMENT_SET_NO>999</ELEMENT_SET_NO><REV_AT_EPOCH>288</REV_AT_EPOCH><BSTAR>-.13521E-1</BSTAR><MEAN_MOTION_DOT>-.1229055E-1</MEAN_MOTION_DOT><MEAN_MOTION_DDOT>0</MEAN_MOTION_DDOT></tleParameters></data></segment></body></omm>
<omm id="CCSDS_OMM_VERS" version="2.0">
<header><CREATION_DATE/><ORIGINATOR/></header><body><segment><metadata><OBJECT_NAME>STARLINK-4402</OBJECT_NAME><OBJECT_ID>2022-099AW</OBJECT_ID><CENTER_NAME>EARTH</CENTER_NAME><REF_FRAME>TEME</REF_FRAME><TIME_SYSTEM>UTC</TIME_SYSTEM><MEAN_ELEMENT_THEORY>SGP4</MEAN_ELEMENT_THEORY></metadata><data><meanElements><EPOCH>2022-08-29T16:00:00.999936</EPOCH><MEAN_MOTION>15.65845952</MEAN_MOTION><ECCENTRICITY>.0001847</ECCENTRICITY><INCLINATION>97.6558</INCLINATION><RA_OF_ASC_NODE>0.4701</RA_OF_ASC_NODE><ARG_OF_PERICENTER>55.6202</ARG_OF_PERICENTER><MEAN_ANOMALY>36.6208</MEAN_ANOMALY></meanElements><tleParameters><EPHEMERIS_TYPE>0</EPHEMERIS_TYPE><CLASSIFICATION_TYPE>U</CLASSIFICATION_TYPE><NORAD_CAT_ID>53509</NORAD_CAT_ID><ELEMENT_SET_NO>999</ELEMENT_SET_NO><REV_AT_EPOCH>288</REV_AT_EPOCH><BSTAR>-.13476E-1</BSTAR><MEAN_MOTION_DOT>-.1226562E-1</MEAN_MOTION_DOT><MEAN_MOTION_DDOT>0</MEAN_MOTION_DDOT></tleParameters></data></segment></body></omm>
<omm id="CCSDS_OMM_VERS" version="2.0">
<header><CREATION_DATE/><ORIGINATOR/></header><body><segment><metadata><OBJECT_NAME>STARLINK-4441</OBJECT_NAME><OBJECT_ID>2022-099AX</OBJECT_ID><CENTER_NAME>EARTH</CENTER_NAME><REF_FRAME>TEME</REF_FRAME><TIME_SYSTEM>UTC</TIME_SYSTEM><MEAN_ELEMENT_THEORY>SGP4</MEAN_ELEMENT_THEORY></metadata><data><meanElements><EPOCH>2022-08-29T16:00:00.999936</EPOCH><MEAN_MOTION>15.65840284</MEAN_MOTION><ECCENTRICITY>.000191</ECCENTRICITY><INCLINATION>97.6558</INCLINATION><RA_OF_ASC_NODE>0.4697</RA_OF_ASC_NODE><ARG_OF_PERICENTER>58.5712</ARG_OF_PERICENTER><MEAN_ANOMALY>33.0292</MEAN_ANOMALY></meanElements><tleParameters><EPHEMERIS_TYPE>0</EPHEMERIS_TYPE><CLASSIFICATION_TYPE>U</CLASSIFICATION_TYPE><NORAD_CAT_ID>53510</NORAD_CAT_ID><ELEMENT_SET_NO>999</ELEMENT_SET_NO><REV_AT_EPOCH>288</REV_AT_EPOCH><BSTAR>-.13505E-1</BSTAR><MEAN_MOTION_DOT>-.1228715E-1</MEAN_MOTION_DOT><MEAN_MOTION_DDOT>0</MEAN_MOTION_DDOT></tleParameters></data></segment></body></omm>
<omm id="CCSDS_OMM_VERS" version="2.0">
<header><CREATION_DATE/><ORIGINATOR/></header><body><segment><metadata><OBJECT_NAME>FALCON 9 DEB</OBJECT_NAME><OBJECT_ID>2022-099AY</OBJECT_ID><CENTER_NAME>EARTH</CENTER_NAME><REF_FRAME>TEME</REF_FRAME><TIME_SYSTEM>UTC</TIME_SYSTEM><MEAN_ELEMENT_THEORY>SGP4</MEAN_ELEMENT_THEORY></metadata><data><meanElements><EPOCH>2022-08-29T09:30:30.479904</EPOCH><MEAN_MOTION>15.89569153</MEAN_MOTION><ECCENTRICITY>.0009816</ECCENTRICITY><INCLINATION>97.6792</INCLINATION><RA_OF_ASC_NODE>0.5575</RA_OF_ASC_NODE><ARG_OF_PERICENTER>220.9676</ARG_OF_PERICENTER><MEAN_ANOMALY>139.0859</MEAN_ANOMALY></meanElements><tleParameters><EPHEMERIS_TYPE>0</EPHEMERIS_TYPE><CLASSIFICATION_TYPE>U</CLASSIFICATION_TYPE><NORAD_CAT_ID>53511</NORAD_CAT_ID><ELEMENT_SET_NO>999</ELEMENT_SET_NO><REV_AT_EPOCH>262</REV_AT_EPOCH><BSTAR>.44371E-3</BSTAR><MEAN_MOTION_DOT>.128949E-2</MEAN_MOTION_DOT><MEAN_MOTION_DDOT>.83004E-5</MEAN_MOTION_DDOT></tleParameters></data></segment></body></omm>
<omm id="CCSDS_OMM_VERS" version="2.0">
<header><CREATION_DATE/><ORIGINATOR/></header><body><segment><metadata><OBJECT_NAME>FALCON 9 DEB</OBJECT_NAME><OBJECT_ID>2022-099AZ</OBJECT_ID><CENTER_NAME>EARTH</CENTER_NAME><REF_FRAME>TEME</REF_FRAME><TIME_SYSTEM>UTC</TIME_SYSTEM><MEAN_ELEMENT_THEORY>SGP4</MEAN_ELEMENT_THEORY></metadata><data><meanElements><EPOCH>2022-08-29T09:23:49.551072</EPOCH><MEAN_MOTION>15.90170422</MEAN_MOTION><ECCENTRICITY>.0007383</ECCENTRICITY><INCLINATION>97.6770</INCLINATION><RA_OF_ASC_NODE>0.5586</RA_OF_ASC_NODE><ARG_OF_PERICENTER>217.5752</ARG_OF_PERICENTER><MEAN_ANOMALY>142.5005</MEAN_ANOMALY></meanElements><tleParameters><EPHEMERIS_TYPE>0</EPHEMERIS_TYPE><CLASSIFICATION_TYPE>U</CLASSIFICATION_TYPE><NORAD_CAT_ID>53512</NORAD_CAT_ID><ELEMENT_SET_NO>999</ELEMENT_SET_NO><REV_AT_EPOCH>262</REV_AT_EPOCH><BSTAR>.47096E-3</BSTAR><MEAN_MOTION_DOT>.140876E-2</MEAN_MOTION_DOT><MEAN_MOTION_DDOT>.94968E-5</MEAN_MOTION_DDOT></tleParameters></data></segment></body></omm>

</ndm>
